{
  "type": "FeatureCollection",
  "features": [
    {
      "type": "Feature",
      "properties": {
        "norad_id": 66940,
        "name": "STARLINK-36121",
        "group": "last-30-days",
        "lat": -53.08799521446584,
        "lon": -97.51115158247151,
        "alt_km": 370.35789641917927,
        "timestamp": "2025-12-23T14:49:07.967825+00:00",
        "meta_object_name": "STARLINK-36121",
        "meta_object_id": "2025-286R",
        "meta_epoch": "2025-12-23T06:00:00.999648",
        "meta_mean_motion": 15.69583353,
        "meta_eccentricity": 0.00010469,
        "meta_inclination": 53.1588,
        "meta_ra_of_asc_node": 357.7804,
        "meta_arg_of_pericenter": 87.8766,
        "meta_mean_anomaly": 263.6607,
        "meta_ephemeris_type": 0,
        "meta_classification_type": "U",
        "meta_norad_cat_id": 66940,
        "meta_element_set_no": 999,
        "meta_rev_at_epoch": 368,
        "meta_bstar": -0.018571971,
        "meta_mean_motion_dot": -0.01976765,
        "meta_mean_motion_ddot": 0,
        "tle_line1": "1 66940U 25286R   25357.25001157 -.01976765  00000+0 -18572-1 0  9997",
        "tle_line2": "2 66940  53.1588 357.7804 0001046  87.8766 263.6607 15.69583353  3689"
      },
      "geometry": {
        "type": "Point",
        "coordinates": [
          -97.51115158247151,
          -53.08799521446584
        ]
      }
    },
    {
      "type": "Feature",
      "properties": {
        "norad_id": 66941,
        "name": "STARLINK-36088",
        "group": "last-30-days",
        "lat": -53.10715789549292,
        "lon": -91.28848303549834,
        "alt_km": 365.4009131692437,
        "timestamp": "2025-12-23T14:49:07.967842+00:00",
        "meta_object_name": "STARLINK-36088",
        "meta_object_id": "2025-286S",
        "meta_epoch": "2025-12-23T06:00:00.999648",
        "meta_mean_motion": 15.71270241,
        "meta_eccentricity": 9.992e-05,
        "meta_inclination": 53.1588,
        "meta_ra_of_asc_node": 357.7777,
        "meta_arg_of_pericenter": 76.697,
        "meta_mean_anomaly": 276.3523,
        "meta_ephemeris_type": 0,
        "meta_classification_type": "U",
        "meta_norad_cat_id": 66941,
        "meta_element_set_no": 999,
        "meta_rev_at_epoch": 368,
        "meta_bstar": -0.017204641,
        "meta_mean_motion_dot": -0.01967582,
        "meta_mean_motion_ddot": 0,
        "tle_line1": "1 66941U 25286S   25357.25001157 -.01967582  00000+0 -17205-1 0  9997",
        "tle_line2": "2 66941  53.1588 357.7777 0000999  76.6970 276.3523 15.71270241  3688"
      },
      "geometry": {
        "type": "Point",
        "coordinates": [
          -91.28848303549834,
          -53.10715789549292
        ]
      }
    },
    {
      "type": "Feature",
      "properties": {
        "norad_id": 66942,
        "name": "STARLINK-36100",
        "group": "last-30-days",
        "lat": -53.13825563611161,
        "lon": -94.33064660173265,
        "alt_km": 370.2103548795194,
        "timestamp": "2025-12-23T14:49:07.967862+00:00",
        "meta_object_name": "STARLINK-36100",
        "meta_object_id": "2025-286T",
        "meta_epoch": "2025-12-23T06:00:00.999648",
        "meta_mean_motion": 15.69585905,
        "meta_eccentricity": 8.492e-05,
        "meta_inclination": 53.1586,
        "meta_ra_of_asc_node": 357.7764,
        "meta_arg_of_pericenter": 86.8618,
        "meta_mean_anomaly": 266.5928,
        "meta_ephemeris_type": 0,
        "meta_classification_type": "U",
        "meta_norad_cat_id": 66942,
        "meta_element_set_no": 999,
        "meta_rev_at_epoch": 361,
        "meta_bstar": -0.018602803,
        "meta_mean_motion_dot": -0.01979698,
        "meta_mean_motion_ddot": 0,
        "tle_line1": "1 66942U 25286T   25357.25001157 -.01979698  00000+0 -18603-1 0  9992",
        "tle_line2": "2 66942  53.1586 357.7764 0000849  86.8618 266.5928 15.69585905  3615"
      },
      "geometry": {
        "type": "Point",
        "coordinates": [
          -94.33064660173265,
          -53.13825563611161
        ]
      }
    },
    {
      "type": "Feature",
      "properties": {
        "norad_id": 66943,
        "name": "STARLINK-36109",
        "group": "last-30-days",
        "lat": -53.10363977296955,
        "lon": -91.14774411609916,
        "alt_km": 370.2740365155996,
        "timestamp": "2025-12-23T14:49:07.967880+00:00",
        "meta_object_name": "STARLINK-36109",
        "meta_object_id": "2025-286U",
        "meta_epoch": "2025-12-23T06:00:00.999648",
        "meta_mean_motion": 15.69586242,
        "meta_eccentricity": 9.577e-05,
        "meta_inclination": 53.1586,
        "meta_ra_of_asc_node": 357.7723,
        "meta_arg_of_pericenter": 83.9758,
        "meta_mean_anomaly": 271.3973,
        "meta_ephemeris_type": 0,
        "meta_classification_type": "U",
        "meta_norad_cat_id": 66943,
        "meta_element_set_no": 999,
        "meta_rev_at_epoch": 361,
        "meta_bstar": -0.018625896,
        "meta_mean_motion_dot": -0.0198197,
        "meta_mean_motion_ddot": 0,
        "tle_line1": "1 66943U 25286U   25357.25001157 -.01981970  00000+0 -18626-1 0  9994",
        "tle_line2": "2 66943  53.1586 357.7723 0000957  83.9758 271.3973 15.69586242  3613"
      },
      "geometry": {
        "type": "Point",
        "coordinates": [
          -91.14774411609916,
          -53.10363977296955
        ]
      }
    },
    {
      "type": "Feature",
      "properties": {
        "norad_id": 66944,
        "name": "STARLINK-36112",
        "group": "last-30-days",
        "lat": -52.984256863520514,
        "lon": -87.9722702085308,
        "alt_km": 370.3361045179263,
        "timestamp": "2025-12-23T14:49:07.967901+00:00",
        "meta_object_name": "STARLINK-36112",
        "meta_object_id": "2025-286V",
        "meta_epoch": "2025-12-23T06:00:00.999648",
        "meta_mean_motion": 15.69577318,
        "meta_eccentricity": 0.00010161,
        "meta_inclination": 53.1589,
        "meta_ra_of_asc_node": 357.7683,
        "meta_arg_of_pericenter": 100.5383,
        "meta_mean_anomaly": 256.7548,
        "meta_ephemeris_type": 0,
        "meta_classification_type": "U",
        "meta_norad_cat_id": 66944,
        "meta_element_set_no": 999,
        "meta_rev_at_epoch": 368,
        "meta_bstar": -0.018532451,
        "meta_mean_motion_dot": -0.01972591,
        "meta_mean_motion_ddot": 0,
        "tle_line1": "1 66944U 25286V   25357.25001157 -.01972591  00000+0 -18532-1 0  9990",
        "tle_line2": "2 66944  53.1589 357.7683 0001016 100.5383 256.7548 15.69577318  3685"
      },
      "geometry": {
        "type": "Point",
        "coordinates": [
          -87.9722702085308,
          -52.984256863520514
        ]
      }
    },
    {
      "type": "Feature",
      "properties": {
        "norad_id": 66945,
        "name": "STARLINK-36110",
        "group": "last-30-days",
        "lat": -52.781238661122366,
        "lon": -84.8279686262267,
        "alt_km": 370.32684005337615,
        "timestamp": "2025-12-23T14:49:07.967922+00:00",
        "meta_object_name": "STARLINK-36110",
        "meta_object_id": "2025-286W",
        "meta_epoch": "2025-12-23T06:00:00.999648",
        "meta_mean_motion": 15.69588195,
        "meta_eccentricity": 0.00010142,
        "meta_inclination": 53.1592,
        "meta_ra_of_asc_node": 357.7646,
        "meta_arg_of_pericenter": 80.5283,
        "meta_mean_anomaly": 278.675,
        "meta_ephemeris_type": 0,
        "meta_classification_type": "U",
        "meta_norad_cat_id": 66945,
        "meta_element_set_no": 999,
        "meta_rev_at_epoch": 368,
        "meta_bstar": -0.018653498,
        "meta_mean_motion_dot": -0.01984743,
        "meta_mean_motion_ddot": 0,
        "tle_line1": "1 66945U 25286W   25357.25001157 -.01984743  00000+0 -18653-1 0  9997",
        "tle_line2": "2 66945  53.1592 357.7646 0001014  80.5283 278.6750 15.69588195  3686"
      },
      "geometry": {
        "type": "Point",
        "coordinates": [
          -84.8279686262267,
          -52.781238661122366
        ]
      }
    },
    {
      "type": "Feature",
      "properties": {
        "norad_id": 66946,
        "name": "STARLINK-36115",
        "group": "last-30-days",
        "lat": -52.495126883571146,
        "lon": -81.71807060832434,
        "alt_km": 370.411273613342,
        "timestamp": "2025-12-23T14:49:07.967934+00:00",
        "meta_object_name": "STARLINK-36115",
        "meta_object_id": "2025-286X",
        "meta_epoch": "2025-12-23T06:00:00.999648",
        "meta_mean_motion": 15.69588769,
        "meta_eccentricity": 0.00011601,
        "meta_inclination": 53.159,
        "meta_ra_of_asc_node": 357.7602,
        "meta_arg_of_pericenter": 80.7306,
        "meta_mean_anomaly": 280.388,
        "meta_ephemeris_type": 0,
        "meta_classification_type": "U",
        "meta_norad_cat_id": 66946,
        "meta_element_set_no": 999,
        "meta_rev_at_epoch": 368,
        "meta_bstar": -0.018655902,
        "meta_mean_motion_dot": -0.01985123,
        "meta_mean_motion_ddot": 0,
        "tle_line1": "1 66946U 25286X   25357.25001157 -.01985123  00000+0 -18656-1 0  9994",
        "tle_line2": "2 66946  53.1590 357.7602 0001160  80.7306 280.3880 15.69588769  3688"
      },
      "geometry": {
        "type": "Point",
        "coordinates": [
          -81.71807060832434,
          -52.495126883571146
        ]
      }
    }
  ]
}